H1 CPF 01  gfz 2021 04 30 00  6201 terrasarx 
H2 0702601  6201 31698    2021 04 30 00 59 42 2021 05 05 00 00 42   120 1 1  0 0 0
H9
10 0 59338  22302.000000  0   -6855932.669    382435.936    552125.523
10 0 59338  22422.000000  0   -6711155.895    551846.075   1446942.440
10 0 59338  22542.000000  0   -6446186.702    708022.473   2316277.637
10 0 59338  22662.000000  0   -6065922.104    846172.556   3144819.195
10 0 59338  22782.000000  0   -5577374.401    961925.316   3917980.944
10 0 59338  22902.000000  0   -4989532.819   1051444.196   4622164.050
10 0 59338  23022.000000  0   -4313187.998   1111527.066   5244997.814
10 0 59338  23142.000000  0   -3560724.216   1139690.838   5775555.187
10 0 59338  23262.000000  0   -2745884.353   1134239.343   6204541.367
10 0 59338  23382.000000  0   -1883511.536   1094312.869   6524452.482
10 0 59338  23502.000000  0    -989272.345   1019919.018   6729700.520
10 0 59338  23622.000000  0     -79369.759    911943.406   6816703.758
10 0 59338  23742.000000  0     829749.949    772140.593   6783944.755
10 0 59338  23862.000000  0    1721693.127    603105.599   6631995.061
10 0 59338  23982.000000  0    2580413.009    408226.393   6363506.103
10 0 59338  24102.000000  0    3390498.308    191617.760   5983166.963
10 0 59338  24222.000000  0    4137452.262    -41962.726   5497627.532
10 0 59338  24342.000000  0    4807955.949   -287215.019   4915388.073
10 0 59338  24462.000000  0    5390112.146   -538411.238   4246656.318
10 0 59338  24582.000000  0    5873665.032   -789522.957   3503173.495
10 0 59338  24702.000000  0    6250191.589  -1034358.163   2698010.627
10 0 59338  24822.000000  0    6513258.318  -1266704.816   1845337.367
10 0 59338  24942.000000  0    6658538.837  -1480476.833    960168.649
10 0 59338  25062.000000  0    6683891.217  -1669860.843     58094.904
10 0 59338  25182.000000  0    6589391.661  -1829459.147   -845001.918
10 0 59338  25302.000000  0    6377321.569  -1954423.508  -1733236.986
10 0 59338  25422.000000  0    6052111.073  -2040578.191  -2591010.549
10 0 59338  25542.000000  0    5620238.918  -2084528.174  -3403287.954
10 0 59338  25662.000000  0    5090093.563  -2083750.245  -4155865.501
10 0 59338  25782.000000  0    4471800.051  -2036665.058  -4835618.072
10 0 59338  25902.000000  0    3777015.864  -1942689.132  -5430724.287
10 0 59338  26022.000000  0    3018701.035  -1802265.579  -5930863.861
10 0 59338  26142.000000  0    2210870.739  -1616872.948  -6327385.447
10 0 59338  26262.000000  0    1368334.273  -1389012.611  -6613446.434
10 0 59338  26382.000000  0     506423.133  -1122175.192  -6784120.105
10 0 59338  26502.000000  0    -359284.255   -820787.459  -6836471.169
10 0 59338  26622.000000  0   -1213238.058   -490139.815  -6769600.244
10 0 59338  26742.000000  0   -2040190.001   -136295.489  -6584657.885
10 0 59338  26862.000000  0   -2825459.531    234017.870  -6284825.823
10 0 59338  26982.000000  0   -3555188.498    613531.759  -5875268.048
10 0 59338  27102.000000  0   -4216583.864    994574.920  -5363052.120
10 0 59338  27222.000000  0   -4798143.869   1369223.110  -4757038.217
10 0 59338  27342.000000  0   -5289864.154   1729460.027  -4067738.424
10 0 59338  27462.000000  0   -5683418.431   2067345.473  -3307143.589
10 0 59338  27582.000000  0   -5972309.815   2375186.050  -2488522.593
10 0 59338  27702.000000  0   -6151989.900   2645705.936  -1626195.297
10 0 59338  27822.000000  0   -6219941.247   2872213.627   -735282.390
10 0 59338  27942.000000  0   -6175720.666   3048760.202    168563.425
10 0 59338  28062.000000  0   -6020960.500   3170284.217   1069439.991
10 0 59338  28182.000000  0   -5759326.845   3232739.927   1951484.206
10 0 59338  28302.000000  0   -5396436.783   3233205.043   2799160.353
10 0 59338  28422.000000  0   -4939736.955   3169965.533   3597541.556
10 0 59338  28542.000000  0   -4398346.157   3042574.593   4332579.443
10 0 59338  28662.000000  0   -3782866.025   2851884.668   4991354.194
10 0 59338  28782.000000  0   -3105166.676   2600053.026   5562301.383
10 0 59338  28902.000000  0   -2378150.636   2290520.978   6035413.464
10 0 59338  29022.000000  0   -1615500.465   1927966.093   6402410.572
10 0 59338  29142.000000  0    -831416.108   1518229.412   6656878.848
10 0 59338  29262.000000  0     -40349.134   1068219.249   6794375.103
10 0 59338  29382.000000  0     743263.013    585793.451   6812499.566
10 0 59338  29502.000000  0    1505259.547     79622.281   6710934.853
10 0 59338  29622.000000  0    2232010.911   -440966.504   6491451.538
10 0 59338  29742.000000  0    2910662.026   -966158.985   6157880.183
10 0 59338  29862.000000  0    3529361.285  -1485838.878   5716049.432
10 0 59338  29982.000000  0    4077471.379  -1989782.162   5173689.723
10 0 59338  30102.000000  0    4545756.440  -2467858.118   4540303.470
10 0 59338  30222.000000  0    4926544.245  -2910233.992   3827005.018
10 0 59338  30342.000000  0    5213860.197  -3307579.409   3046329.073
10 0 59338  30462.000000  0    5403527.953  -3651264.326   2212009.672
10 0 59338  30582.000000  0    5493233.395  -3933546.566   1338736.005
10 0 59338  30702.000000  0    5482552.146  -4147745.058    441888.683
10 0 59338  30822.000000  0    5372938.895  -4288392.520   -462738.466
10 0 59338  30942.000000  0    5167678.713  -4351365.310  -1359225.549
10 0 59338  31062.000000  0    4871800.995  -4333985.284  -2231815.753
10 0 59338  31182.000000  0    4491958.522  -4235091.960  -3065199.641
10 0 59338  31302.000000  0    4036275.713  -4055083.805  -3844788.286
10 0 59338  31422.000000  0    3514169.822  -3795927.224  -4556969.802
10 0 59338  31542.000000  0    2936150.575  -3461134.580  -5189344.143
10 0 59338  31662.000000  0    2313603.191  -3055711.905  -5730932.050
10 0 59338  31782.000000  0    1658561.413  -2586079.236  -6172355.056
10 0 59338  31902.000000  0     983474.569  -2059965.662  -6505988.314
10 0 59338  32022.000000  0     300971.286  -1486278.368  -6726082.425
10 0 59338  32142.000000  0    -376373.773   -874950.533  -6828851.699
10 0 59338  32262.000000  0   -1036266.156   -236771.201  -6812531.129
10 0 59338  32382.000000  0   -1666909.421    416800.936  -6677403.098
10 0 59338  32502.000000  0   -2257211.234   1073838.001  -6425792.374
10 0 59338  32622.000000  0   -2796973.990   1722155.127  -6062030.467
10 0 59338  32742.000000  0   -3277068.729   2349531.054  -5592389.465
10 0 59338  32862.000000  0   -3689590.780   2943935.571  -5024985.688
10 0 59338  32982.000000  0   -4027994.529   3493759.742  -4369650.785
10 0 59338  33102.000000  0   -4287202.665   3988043.824  -3637770.875
10 0 59338  33222.000000  0   -4463687.043   4416698.729  -2842097.556
10 0 59338  33342.000000  0   -4555521.589   4770716.511  -1996531.986
10 0 59338  33462.000000  0   -4562404.100   5042363.878  -1115884.596
10 0 59338  33582.000000  0   -4485646.845   5225355.467   -215614.250
10 0 59338  33702.000000  0   -4328132.577   5314999.864    688449.578
10 0 59338  33822.000000  0   -4094239.452   5308314.999   1580392.072
10 0 59338  33942.000000  0   -3789735.093   5204109.332   2444504.091
10 0 59338  34062.000000  0   -3421641.364   5003025.140   3265568.067
10 0 59338  34182.000000  0   -2998074.665   4707545.029   4029132.267
10 0 59338  34302.000000  0   -2528067.388   4321962.132   4721769.306
10 0 59338  34422.000000  0   -2021373.568   3852313.616   5331314.142
10 0 59338  34542.000000  0   -1488264.202   3306279.542   5847076.646
10 0 59338  34662.000000  0    -939316.593   2693050.134   6260024.883
10 0 59338  34782.000000  0    -385203.441   2023164.490   6562936.586
10 0 59338  34902.000000  0     163513.825   1308326.087   6750519.106
10 0 59338  35022.000000  0     696586.060    561195.680   6819496.887
10 0 59338  35142.000000  0    1204266.903   -204832.960   6768664.165
10 0 59338  35262.000000  0    1677489.903   -975872.111   6598905.664
10 0 59338  35382.000000  0    2108030.170  -1737791.404   6313182.391
10 0 59338  35502.000000  0    2488647.939  -2476476.116   5916484.180
10 0 59338  35622.000000  0    2813212.476  -3178089.977   5415748.056
10 0 59338  35742.000000  0    3076802.973  -3829336.859   4819742.454
10 0 59338  35862.000000  0    3275785.302  -4417716.791   4138919.681
10 0 59338  35982.000000  0    3407863.620  -4931772.452   3385236.625
10 0 59338  36102.000000  0    3472104.130  -5361318.821   2571946.071
10 0 59338  36222.000000  0    3468931.121  -5697651.957   1713362.350
10 0 59338  36342.000000  0    3400094.308  -5933730.965    824605.142
10 0 59338  36462.000000  0    3268608.965  -6064327.276    -78672.894
10 0 59338  36582.000000  0    3078671.113  -6086140.956   -980569.123
10 0 59338  36702.000000  0    2835546.797  -5997876.984  -1865221.601
10 0 59338  36822.000000  0    2545440.094  -5800280.298  -2717095.205
10 0 59338  36942.000000  0    2215344.326  -5496130.842  -3521261.111
10 0 59338  37062.000000  0    1852878.200  -5090196.988  -4263662.431
10 0 59338  37182.000000  0    1466112.826  -4589148.902  -4931357.897
10 0 59338  37302.000000  0    1063395.505  -4001437.853  -5512741.541
10 0 59338  37422.000000  0     653172.979  -3337143.881  -5997736.343
10 0 59338  37542.000000  0     243817.480  -2607795.071  -6377958.245
10 0 59338  37662.000000  0    -156540.434  -1826162.991  -6646849.602
10 0 59338  37782.000000  0    -540169.015  -1006037.982  -6799781.671
10 0 59338  37902.000000  0    -899879.815   -161987.863  -6834126.139
10 0 59338  38022.000000  0   -1229158.505    690896.206  -6749294.428
10 0 59338  38142.000000  0   -1522280.081   1537262.428  -6546746.140
10 0 59338  38262.000000  0   -1774406.005   2361767.832  -6229966.362
10 0 59338  38382.000000  0   -1981663.234   3149350.134  -5804413.468
10 0 59338  38502.000000  0   -2141203.994   3885500.394  -5277434.831
10 0 59338  38622.000000  0   -2251244.722   4556530.448  -4658151.600
10 0 59338  38742.000000  0   -2311084.213   5149831.915  -3957311.604
99
